[{"OBJECT_NAME":"YAOGAN-30 09C","OBJECT_ID":"2021-039C","EPOCH":"2026-03-09T23:18:27.367776","MEAN_MOTION":15.02221245,"ECCENTRICITY":0.00033191,"INCLINATION":34.9945,"RA_OF_ASC_NODE":275.1705,"ARG_OF_PERICENTER":299.331,"MEAN_ANOMALY":60.7067,"EPHEMERIS_TYPE":0,"CLASSIFICATION_TYPE":"U","NORAD_CAT_ID":48425,"ELEMENT_SET_NO":999,"REV_AT_EPOCH":26462,"BSTAR":0.00027769734,"MEAN_MOTION_DOT":3.708e-5,"MEAN_MOTION_DDOT":0},{"OBJECT_NAME":"STARLINK-5488","OBJECT_ID":"2023-094AJ","EPOCH":"2026-03-09T06:10:23.392416","MEAN_MOTION":15.03027168,"ECCENTRICITY":0.00027415,"INCLINATION":43.0024,"RA_OF_ASC_NODE":19.7799,"ARG_OF_PERICENTER":245.5795,"MEAN_ANOMALY":114.4761,"EPHEMERIS_TYPE":0,"CLASSIFICATION_TYPE":"U","NORAD_CAT_ID":57250,"ELEMENT_SET_NO":999,"REV_AT_EPOCH":14720,"BSTAR":0.0043847897,"MEAN_MOTION_DOT":0.00060325,"MEAN_MOTION_DDOT":0}]
